satname,norad_id,inclination_deg,eccentricity,mean_motion_rev_per_day,perigee_km,apogee_km,l1,l2
STARLINK-1404,45686,53.1604,0.0001138,15.38479346,449.8282521597039,451.38247392153335,1 45686U 20035AF  26100.49177190  .00064385  00000+0  16670-2 0  9993,2 45686  53.1604 261.1421 0001138 350.7036   9.3947 15.38479346323857
STARLINK-1413,45689,53.1656,5.23e-05,15.30327154,474.4770263248183,475.19384724170504,1 45689U 20035AJ  26100.44501611  .00014189  00000+0  48834-3 0  9995,2 45689  53.1656 262.0777 0000523 318.3472  41.7489 15.30327154323753
STARLINK-1417,45693,53.0528,0.0003224,15.14254647,521.0173114108793,525.4673207939022,1 45693U 20035AN  26100.49555252  .00030189  00000+0  16413-2 0  9990,2 45693  53.0528 269.9699 0003224 337.9003  22.1850 15.14254647323711
STARLINK-1420,45695,53.0477,0.0005179,15.60624907,382.3477801716699,389.35391878615974,1 45695U 20035AQ  26100.51804806  .00107176  00000+0  12599-2 0  9999,2 45695  53.0477 228.1061 0005179 293.8889  66.1581 15.60624907324316
STARLINK-1422,45696,53.1583,0.0002804,15.3046433,472.50448263169164,476.34739992916184,1 45696U 20035AR  26100.45207235  .00006293  00000+0  22263-3 0  9994,2 45696  53.1583 262.0458 0002804 104.9842 255.1469 15.30464330323836
STARLINK-1351,45697,53.0475,0.0006236,15.5866946,387.2853440242534,395.7284438887955,1 45697U 20035AS  26100.52444380  .00066654  00000+0  85049-3 0  9995,2 45697  53.0475 227.6199 0006236 304.2287  55.8134 15.58669460324326
STARLINK-1400,45700,53.0456,0.0005023,15.56841783,393.40101939234864,400.2071251935731,1 45700U 20035AV  26100.53421752  .00091831  00000+0  12486-2 0  9998,2 45700  53.0456 229.3572 0005023 248.0626 111.9851 15.56841783324293
STARLINK-1403,45701,53.1561,0.0001968,15.29463172,476.066815371395,478.7651610275516,1 45701U 20035AW  26099.83685313  .00019556  00000+0  68598-3 0  9994,2 45701  53.1561 252.0136 0001968  92.8121 267.3105 15.29463172323918
STARLINK-1407,45703,53.03,0.0003151,15.66055975,368.077095267633,372.32989944906694,1 45703U 20035AY  26100.53401880  .00048185  00000+0  46424-3 0  9995,2 45703  53.0300 159.8007 0003151 248.8218 111.2460 15.66055975325278
STARLINK-1411,45706,53.0397,0.0005272,15.69852421,355.7672399231342,362.87121376872074,1 45706U 20035BB  26100.22746419  .00140028  00000+0  11338-2 0  9998,2 45706  53.0397 186.4863 0005272 336.9187  23.1592 15.69852421324868
STARLINK-1423,45710,53.0431,0.0006504,15.5943126,384.9004731172736,393.7035577885763,1 45710U 20035BF  26100.51575772  .00096665  00000+0  11910-2 0  9990,2 45710  53.0431 227.9246 0006504 262.9654  97.0619 15.59431260324306
STARLINK-1433,45711,53.0447,0.0006027,15.61783055,378.4318836316852,386.58116333489124,1 45711U 20035BG  26100.49716534  .00110132  00000+0  12373-2 0  9991,2 45711  53.0447 226.5708 0006027 267.8101  92.2222 15.61783055324327
STARLINK-1434,45712,53.0525,0.0002495,15.29828689,474.6137733612368,478.03414938096194,1 45712U 20035BH  26098.78413746  .00051782  00000+0  17682-2 0  9992,2 45712  53.0525 240.3398 0002495 238.3069 121.7687 15.29828689323997
STARLINK-1465,45731,53.0488,0.0005817,15.55381554,397.1002762963917,404.9871751526989,1 45731U 20038B   26100.31700691  .00104880  00000+0  15014-2 0  9992,2 45731  53.0488  70.8207 0005817  51.9285 308.2250 15.55381554321294
STARLINK-1471,45735,53.047,0.0001713,15.50769642,413.31412914972316,415.64127894733065,1 45735U 20038F   26099.98748860  .00025232  00000+0  43718-3 0  9992,2 45735  53.0470 351.8771 0001713  53.3017 306.8149 15.50769642322382
STARLINK-1480,45741,53.0515,0.0002881,15.57475083,393.0160669074867,396.91872966177743,1 45741U 20038M   26100.33511626  .00105982  00000+0  14043-2 0  9998,2 45741  53.0515  64.7965 0002881 119.6554 240.4744 15.57475083321397
STARLINK-1500,45744,53.0374,0.0003379,15.36626492,453.78434199866115,458.4029150574197,1 45744U 20038Q   26100.24183375  .00028262  00000+0  78649-3 0  9995,2 45744  53.0374  44.5428 0003379  41.2237 318.9019 15.36626492321669
STARLINK-1504,45746,53.0238,8.74e-05,15.55485336,400.1497103185411,401.33465839996643,1 45746U 20038S   26099.87304324  .00027167  00000+0  39661-3 0  9996,2 45746  53.0238 351.4940 0000874  83.4861 276.6248 15.55485336322360
STARLINK-1506,45747,53.0764,0.0003567,15.27014003,482.29642834009246,487.192407943794,1 45747U 20038T   26100.28171000  .00009682  00000+0  37284-3 0  9999,2 45747  53.0764  56.1445 0003567  19.1092 341.0040 15.27014003321519
STARLINK-1464,45751,53.0489,0.0003553,15.48062668,419.97763936223964,424.81009659702613,1 45751U 20038X   26100.05545689  .00071920  00000+0  13464-2 0  9994,2 45751  53.0489  55.0823 0003553  61.9192 298.2174 15.48062668321500
STARLINK-1477,45754,53.0479,0.0003102,15.16121659,515.436348874201,519.7144488464537,1 45754U 20038AA  26100.29399288  .00033089  00000+0  17044-2 0  9997,2 45754  53.0479  69.1263 0003102  79.5959 280.5383 15.16121659321329
STARLINK-1478,45755,53.0488,0.0003493,15.60730011,383.1846203955647,387.90973016041517,1 45755U 20038AB  26100.26012221  .00106931  00000+0  12524-2 0  9999,2 45755  53.0488  44.5886 0003493  51.6076 308.5250 15.60730011321659
STARLINK-1493,45759,53.0501,0.0004884,15.5601304,395.8993888920031,402.5195008993778,1 45759U 20038AF  26100.49953981  .00083351  00000+0  11705-2 0  9995,2 45759  53.0501  51.1871 0004884 115.3913 244.7603 15.56013040321586
STARLINK-1494,45760,53.0479,0.0004808,15.81856151,321.96874835531617,328.4146692416962,1 45760U 20038AG  26100.43042928  .00152743  00000+0  72937-3 0  9998,2 45760  53.0479 352.9550 0004808 134.6400 225.5015 15.81856151322401
STARLINK-1502,45764,53.049,0.0006233,15.52448747,405.34817805124385,413.8097447687369,1 45764U 20038AL  26100.41762336  .00086149  00000+0  13765-2 0  9991,2 45764  53.0490  53.8817 0006233 104.6188 255.5512 15.52448747321551
STARLINK-1470,45772,53.0456,0.0003459,15.31056549,470.28907064716896,475.02845115455966,1 45772U 20038AU  26100.49913181  .00050329  00000+0  16552-2 0  9992,2 45772  53.0456  26.3590 0003459 114.5596 245.5765 15.31056549321949
STARLINK-1482,45773,53.1604,0.0003711,15.33108907,464.003272590041,469.0833943335356,1 45773U 20038AV  26100.53027315  .00041224  00000+0  12752-2 0  9995,2 45773  53.1604  42.8608 0003711 114.4596 245.6793 15.33108907321725
STARLINK-1496,45780,53.0503,5.73e-05,15.5402105,404.61113621557433,405.3884836939942,1 45780U 20038BC  26100.02519211  .00092337  00000+0  13931-2 0  9999,2 45780  53.0503  27.2603 0000573 158.8921 201.2113 15.54021050321875
STARLINK-1513,45786,53.1614,0.0001447,15.30187365,474.2611100080303,476.2444810148527,1 45786U 20038BJ  26100.23754340  .00000722  00000+0  36508-4 0  9996,2 45786  53.1614  44.6146 0001447  91.0425 269.0741 15.30187365321671
STARLINK-1522,46027,53.0644,0.0002409,15.10737089,532.2856937016813,535.6159376112646,1 46027U 20055A   26100.38964007  .00023079  00000+0  13892-2 0  9992,2 46027  53.0644 343.4509 0002409 145.1223 214.9926 15.10737089313678
STARLINK-1523,46028,53.1617,0.0001298,15.30200034,474.3254028160227,476.10453298688935,1 46028U 20055B   26100.39586858  .00000856  00000+0  41015-4 0  9996,2 46028  53.1617 339.4323 0001298  83.2767 276.8381 15.30200034313757
STARLINK-1526,46029,53.1605,0.0001327,15.30186481,474.3459898375668,476.16488018982,1 46029U 20055C   26100.06298296 -.00000815  00000+0 -15402-4 0  9995,2 46029  53.1605 340.9854 0001327  98.7196 261.3955 15.30186481313699
STARLINK-1555,46032,53.1599,0.0001142,15.30201442,474.4281115559925,475.9934161852607,1 46032U 20055F   26100.37376101  .00004575  00000+0  16650-3 0  9995,2 46032  53.1599 339.5310 0001142  96.6865 263.4266 15.30201442313740
STARLINK-1556,46033,53.1564,0.000134,15.29360449,476.8042788145967,478.6416492849621,1 46033U 20055G   26100.35487354  .00001083  00000+0  49838-4 0  9993,2 46033  53.1564 339.6127 0001340  92.4654 267.6500 15.29360449313715
STARLINK-1557,46034,53.1569,0.0001328,15.29354066,476.8315793073607,478.6525007803966,1 46034U 20055H   26099.95653115 -.00000838  00000+0 -16699-4 0  9995,2 46034  53.1569 341.3600 0001328  94.7563 265.3589 15.29354066313650
STARLINK-1558,46035,53.1596,0.0001322,15.30169695,474.3995310742639,476.2115812861175,1 46035U 20055J   26100.36743455 -.00002311  00000+0 -65997-4 0  9994,2 46035  53.1596 339.5679 0001322  91.5229 268.5923 15.30169695313745
STARLINK-1560,46036,53.1565,0.0001075,15.29357952,476.99342072606214,478.4674322227538,1 46036U 20055K   26099.95330311  .00000542  00000+0  31113-4 0  9995,2 46036  53.1565 341.4148 0001075  85.7990 274.3133 15.29357952313684
STARLINK-1567,46038,53.0868,0.0001057,15.79384372,331.47453129698897,332.89309311668967,1 46038U 20055M   26100.72473053  .00338610  00000+0  17686-2 0  9993,2 46038  53.0868 333.0402 0001057 136.3576 223.7529 15.79384372313851
STARLINK-1569,46039,53.1597,9.56e-05,15.30184404,474.6064517499781,475.9168215693071,1 46039U 20055N   26100.37058059 -.00003830  00000+0 -11732-3 0  9992,2 46039  53.1597 339.5510 0000956 100.1792 259.9317 15.30184404313733
STARLINK-1582,46043,53.1621,0.0001407,15.3019999,474.2508326371544,476.1793659178902,1 46043U 20055S   26100.37691250  .00003271  00000+0  12253-3 0  9999,2 46043  53.1621 339.5121 0001407  89.2642 270.8520 15.30199990313731
STARLINK-1591,46045,53.162,0.000124,15.30204498,474.3518252437261,476.05145322625685,1 46045U 20055U   26099.88073085 -.00002477  00000+0 -71505-4 0  9999,2 46045  53.1620 341.8277 0001240  87.1654 272.9489 15.30204498313642
STARLINK-1524,46047,53.1611,0.0001205,15.3019197,474.4132138432551,476.06487747025767,1 46047U 20055W   26100.33210140  .00001663  00000+0  68265-4 0  9992,2 46047  53.1611 326.8646 0001205  93.2112 266.9027 15.30191970313916
STARLINK-1527,46048,53.1618,0.0001335,15.30187704,474.33685590223104,476.16671070737357,1 46048U 20055X   26100.33844260  .00002113  00000+0  83484-4 0  9990,2 46048  53.1618 326.9335 0001335 122.5422 237.5708 15.30187704313891
